{"type": "FeatureCollection", "features": [{"type": "Feature", "properties": {"norad_id": 24946, "name": "IRIDIUM 33", "group": "iridium-33-debris", "lat": -86.38000362456947, "lon": -17.37981608560012, "alt_km": 779.8044046183049, "timestamp": "2025-12-09T04:51:47.876376+00:00", "meta": {"OBJECT_NAME": "IRIDIUM 33", "OBJECT_ID": "1997-051C", "EPOCH": "2025-12-08T19:14:25.820736", "MEAN_MOTION": 14.35033415, "ECCENTRICITY": 0.00066, "INCLINATION": 86.387, "RA_OF_ASC_NODE": 69.8745, "ARG_OF_PERICENTER": 215.0125, "MEAN_ANOMALY": 145.0639, "EPHEMERIS_TYPE": 0, "CLASSIFICATION_TYPE": "U", "NORAD_CAT_ID": 24946, "ELEMENT_SET_NO": 999, "REV_AT_EPOCH": 47778, "BSTAR": 0.00023499, "MEAN_MOTION_DOT": 6.89e-06, "MEAN_MOTION_DDOT": 0}, "tle": {"line1": "1 24946U 97051C   25342.80168774  .00000689  00000+0  23499-3 0  9996", "line2": "2 24946  86.3870  69.8745 0006600 215.0125 145.0639 14.35033415477786"}}, "geometry": {"type": "Point", "coordinates": [-17.37981608560012, -86.38000362456947]}}, {"type": "Feature", "properties": {"norad_id": 33773, "name": "IRIDIUM 33 DEB", "group": "iridium-33-debris", "lat": 57.18728585923061, "lon": -123.51255366213924, "alt_km": 735.2230728420927, "timestamp": "2025-12-09T04:51:47.876402+00:00", "meta": {"OBJECT_NAME": "IRIDIUM 33 DEB", "OBJECT_ID": "1997-051L", "EPOCH": "2025-12-08T18:18:47.833632", "MEAN_MOTION": 14.43244853, "ECCENTRICITY": 0.0012141, "INCLINATION": 86.4015, "RA_OF_ASC_NODE": 62.2746, "ARG_OF_PERICENTER": 158.1711, "MEAN_ANOMALY": 202.001, "EPHEMERIS_TYPE": 0, "CLASSIFICATION_TYPE": "U", "NORAD_CAT_ID": 33773, "ELEMENT_SET_NO": 999, "REV_AT_EPOCH": 88290, "BSTAR": 0.00061199, "MEAN_MOTION_DOT": 2.08e-05, "MEAN_MOTION_DDOT": 0}, "tle": {"line1": "1 33773U 97051L   25342.76305363  .00002080  00000+0  61199-3 0  9992", "line2": "2 33773  86.4015  62.2746 0012141 158.1711 202.0010 14.43244853882909"}}, "geometry": {"type": "Point", "coordinates": [-123.51255366213924, 57.18728585923061]}}, {"type": "Feature", "properties": {"norad_id": 33775, "name": "IRIDIUM 33 DEB", "group": "iridium-33-debris", "lat": -48.98999155640476, "lon": -124.74313756248803, "alt_km": 756.2249262643409, "timestamp": "2025-12-09T04:51:47.876417+00:00", "meta": {"OBJECT_NAME": "IRIDIUM 33 DEB", "OBJECT_ID": "1997-051N", "EPOCH": "2025-12-08T16:41:58.751232", "MEAN_MOTION": 14.41456363, "ECCENTRICITY": 0.0013822, "INCLINATION": 86.3641, "RA_OF_ASC_NODE": 51.2799, "ARG_OF_PERICENTER": 167.2208, "MEAN_ANOMALY": 313.3422, "EPHEMERIS_TYPE": 0, "CLASSIFICATION_TYPE": "U", "NORAD_CAT_ID": 33775, "ELEMENT_SET_NO": 999, "REV_AT_EPOCH": 88082, "BSTAR": 0.00063946, "MEAN_MOTION_DOT": 2.095e-05, "MEAN_MOTION_DDOT": 0}, "tle": {"line1": "1 33775U 97051N   25342.69581888  .00002095  00000+0  63946-3 0  9992", "line2": "2 33775  86.3641  51.2799 0013822 167.2208 313.3422 14.41456363880821"}}, "geometry": {"type": "Point", "coordinates": [-124.74313756248803, -48.98999155640476]}}, {"type": "Feature", "properties": {"norad_id": 33776, "name": "IRIDIUM 33 DEB", "group": "iridium-33-debris", "lat": 40.26498868579268, "lon": -100.79233469756521, "alt_km": 756.7697076120285, "timestamp": "2025-12-09T04:51:47.876429+00:00", "meta": {"OBJECT_NAME": "IRIDIUM 33 DEB", "OBJECT_ID": "1997-051P", "EPOCH": "2025-12-08T20:25:17.631264", "MEAN_MOTION": 14.38225708, "ECCENTRICITY": 0.0013879, "INCLINATION": 86.4038, "RA_OF_ASC_NODE": 82.4088, "ARG_OF_PERICENTER": 203.6045, "MEAN_ANOMALY": 276.0774, "EPHEMERIS_TYPE": 0, "CLASSIFICATION_TYPE": "U", "NORAD_CAT_ID": 33776, "ELEMENT_SET_NO": 999, "REV_AT_EPOCH": 88026, "BSTAR": 0.00064815, "MEAN_MOTION_DOT": 1.989e-05, "MEAN_MOTION_DDOT": 0}, "tle": {"line1": "1 33776U 97051P   25342.85089851  .00001989  00000+0  64815-3 0  9991", "line2": "2 33776  86.4038  82.4088 0013879 203.6045 276.0774 14.38225708880262"}}, "geometry": {"type": "Point", "coordinates": [-100.79233469756521, 40.26498868579268]}}, {"type": "Feature", "properties": {"norad_id": 33777, "name": "IRIDIUM 33 DEB", "group": "iridium-33-debris", "lat": 66.3288206929959, "lon": 45.04933100543248, "alt_km": 704.5004674715719, "timestamp": "2025-12-09T04:51:47.876454+00:00", "meta": {"OBJECT_NAME": "IRIDIUM 33 DEB", "OBJECT_ID": "1997-051Q", "EPOCH": "2025-12-08T15:21:32.710752", "MEAN_MOTION": 14.55568461, "ECCENTRICITY": 0.0005068, "INCLINATION": 86.3783, "RA_OF_ASC_NODE": 36.9867, "ARG_OF_PERICENTER": 268.4261, "MEAN_ANOMALY": 91.6366, "EPHEMERIS_TYPE": 0, "CLASSIFICATION_TYPE": "U", "NORAD_CAT_ID": 33777, "ELEMENT_SET_NO": 999, "REV_AT_EPOCH": 88474, "BSTAR": 0.0014514, "MEAN_MOTION_DOT": 6.347e-05, "MEAN_MOTION_DDOT": 0}, "tle": {"line1": "1 33777U 97051Q   25342.63996193  .00006347  00000+0  14514-2 0  9997", "line2": "2 33777  86.3783  36.9867 0005068 268.4261  91.6366 14.55568461884748"}}, "geometry": {"type": "Point", "coordinates": [45.04933100543248, 66.3288206929959]}}, {"type": "Feature", "properties": {"norad_id": 33850, "name": "IRIDIUM 33 DEB", "group": "iridium-33-debris", "lat": -21.313349507103066, "lon": -146.869103370497, "alt_km": 749.468155497887, "timestamp": "2025-12-09T04:51:47.876469+00:00", "meta": {"OBJECT_NAME": "IRIDIUM 33 DEB", "OBJECT_ID": "1997-051T", "EPOCH": "2025-12-08T15:08:48.189120", "MEAN_MOTION": 14.4213501, "ECCENTRICITY": 0.0011834, "INCLINATION": 86.3419, "RA_OF_ASC_NODE": 31.9463, "ARG_OF_PERICENTER": 173.6819, "MEAN_ANOMALY": 302.206, "EPHEMERIS_TYPE": 0, "CLASSIFICATION_TYPE": "U", "NORAD_CAT_ID": 33850, "ELEMENT_SET_NO": 999, "REV_AT_EPOCH": 88093, "BSTAR": 0.00062881, "MEAN_MOTION_DOT": 2.088e-05, "MEAN_MOTION_DDOT": 0}, "tle": {"line1": "1 33850U 97051T   25342.63111330  .00002088  00000+0  62881-3 0  9990", "line2": "2 33850  86.3419  31.9463 0011834 173.6819 302.2060 14.42135010880932"}}, "geometry": {"type": "Point", "coordinates": [-146.869103370497, -21.313349507103066]}}, {"type": "Feature", "properties": {"norad_id": 33853, "name": "IRIDIUM 33 DEB", "group": "iridium-33-debris", "lat": 52.492541410842435, "lon": -3.406543638736243, "alt_km": 1038.1842576552262, "timestamp": "2025-12-09T04:51:47.876482+00:00", "meta": {"OBJECT_NAME": "IRIDIUM 33 DEB", "OBJECT_ID": "1997-051W", "EPOCH": "2025-12-08T12:11:22.986816", "MEAN_MOTION": 13.99022624, "ECCENTRICITY": 0.02069228, "INCLINATION": 85.9997, "RA_OF_ASC_NODE": 351.667, "ARG_OF_PERICENTER": 248.9226, "MEAN_ANOMALY": 266.3481, "EPHEMERIS_TYPE": 0, "CLASSIFICATION_TYPE": "U", "NORAD_CAT_ID": 33853, "ELEMENT_SET_NO": 999, "REV_AT_EPOCH": 85286, "BSTAR": 0.0029663214, "MEAN_MOTION_DOT": 5.167e-05, "MEAN_MOTION_DDOT": 0}, "tle": {"line1": "1 33853U 97051W   25342.50790494  .00005167  00000+0  29663-2 0  9994", "line2": "2 33853  85.9997 351.6670 0206922 248.9226 266.3481 13.99022624852860"}}, "geometry": {"type": "Point", "coordinates": [-3.406543638736243, 52.492541410842435]}}, {"type": "Feature", "properties": {"norad_id": 33860, "name": "IRIDIUM 33 DEB", "group": "iridium-33-debris", "lat": 5.097807680605804, "lon": -151.51946395432378, "alt_km": 677.5779573617774, "timestamp": "2025-12-09T04:51:47.876493+00:00", "meta": {"OBJECT_NAME": "IRIDIUM 33 DEB", "OBJECT_ID": "1997-051AD", "EPOCH": "2025-12-08T10:20:45.237696", "MEAN_MOTION": 14.67281531, "ECCENTRICITY": 0.00080141, "INCLINATION": 86.3837, "RA_OF_ASC_NODE": 29.1451, "ARG_OF_PERICENTER": 12.6318, "MEAN_ANOMALY": 49.2169, "EPHEMERIS_TYPE": 0, "CLASSIFICATION_TYPE": "U", "NORAD_CAT_ID": 33860, "ELEMENT_SET_NO": 999, "REV_AT_EPOCH": 88659, "BSTAR": 0.0015327477, "MEAN_MOTION_DOT": 8.67e-05, "MEAN_MOTION_DDOT": 0}, "tle": {"line1": "1 33860U 97051AD  25342.43107914  .00008670  00000+0  15327-2 0  9997", "line2": "2 33860  86.3837  29.1451 0008014  12.6318  49.2169 14.67281531886598"}}, "geometry": {"type": "Point", "coordinates": [-151.51946395432378, 5.097807680605804]}}, {"type": "Feature", "properties": {"norad_id": 33862, "name": "IRIDIUM 33 DEB", "group": "iridium-33-debris", "lat": -4.081454702884119, "lon": -140.65335922365946, "alt_km": 674.999555829424, "timestamp": "2025-12-09T04:51:47.876504+00:00", "meta": {"OBJECT_NAME": "IRIDIUM 33 DEB", "OBJECT_ID": "1997-051AF", "EPOCH": "2025-12-08T15:29:23.037792", "MEAN_MOTION": 14.69371874, "ECCENTRICITY": 0.0053769, "INCLINATION": 86.4088, "RA_OF_ASC_NODE": 39.3355, "ARG_OF_PERICENTER": 82.8582, "MEAN_ANOMALY": 34.8096, "EPHEMERIS_TYPE": 0, "CLASSIFICATION_TYPE": "U", "NORAD_CAT_ID": 33862, "ELEMENT_SET_NO": 999, "REV_AT_EPOCH": 88763, "BSTAR": 0.0017718, "MEAN_MOTION_DOT": 0.00010737, "MEAN_MOTION_DDOT": 0}, "tle": {"line1": "1 33862U 97051AF  25342.64540553  .00010737  00000+0  17718-2 0  9995", "line2": "2 33862  86.4088  39.3355 0053769  82.8582  34.8096 14.69371874887631"}}, "geometry": {"type": "Point", "coordinates": [-140.65335922365946, -4.081454702884119]}}, {"type": "Feature", "properties": {"norad_id": 33866, "name": "IRIDIUM 33 DEB", "group": "iridium-33-debris", "lat": 86.12206683703546, "lon": 167.1904775035412, "alt_km": 790.3795438306906, "timestamp": "2025-12-09T04:51:47.876515+00:00", "meta": {"OBJECT_NAME": "IRIDIUM 33 DEB", "OBJECT_ID": "1997-051AK", "EPOCH": "2025-12-08T20:36:39.868128", "MEAN_MOTION": 14.2525579, "ECCENTRICITY": 0.0114152, "INCLINATION": 86.3002, "RA_OF_ASC_NODE": 94.6775, "ARG_OF_PERICENTER": 173.7602, "MEAN_ANOMALY": 313.2599, "EPHEMERIS_TYPE": 0, "CLASSIFICATION_TYPE": "U", "NORAD_CAT_ID": 33866, "ELEMENT_SET_NO": 999, "REV_AT_EPOCH": 86755, "BSTAR": 0.0013239, "MEAN_MOTION_DOT": 3.351e-05, "MEAN_MOTION_DDOT": 0}, "tle": {"line1": "1 33866U 97051AK  25342.85879477  .00003351  00000+0  13239-2 0  9990", "line2": "2 33866  86.3002  94.6775 0114152 173.7602 313.2599 14.25255790867558"}}, "geometry": {"type": "Point", "coordinates": [167.1904775035412, 86.12206683703546]}}]}